{"type": "FeatureCollection", "features": [ {"type": "Feature", "properties": {"norad_id": 44622, "name": "GAOFEN-10R", "group": "resource", "lat": 43.860247236016974, "lon": 112.16040101305332, "alt_km": 614.7663899616546, "timestamp": "2025-12-02T21:34:00.930888+00:00", "meta": {"OBJECT_NAME": "GAOFEN-10R", "OBJECT_ID": "2019-066A", "EPOCH": "2025-12-02T12:51:37.870272", "MEAN_MOTION": 14.82732569, "ECCENTRICITY": 0.0008298, "INCLINATION": 98.0259, "RA_OF_ASC_NODE": 284.0035, "ARG_OF_PERICENTER": 69.6447, "MEAN_ANOMALY": 290.5656, "EPHEMERIS_TYPE": 0, "CLASSIFICATION_TYPE": "U", "NORAD_CAT_ID": 44622, "ELEMENT_SET_NO": 999, "REV_AT_EPOCH": 33323, "BSTAR": 0.00030987, "MEAN_MOTION_DOT": 2.449e-05, "MEAN_MOTION_DDOT": 0}, "tle": {"line1": "1 44622U 19066A   25336.53585498  .00002449  00000+0  30987-3 0  9994", "line2": "2 44622  98.0259 284.0035 0008298  69.6447 290.5656 14.82732569333232"}}, "geometry": {"type": "Point", "coordinates": [112.16040101305332, 43.860247236016974]}}, {"type": "Feature", "properties": {"norad_id": 44804, "name": "CARTOSAT-3", "group": "resource", "lat": 82.07763212453527, "lon": -33.724073455095606, "alt_km": 492.53961792388145, "timestamp": "2025-12-02T21:34:00.930899+00:00", "meta": {"OBJECT_NAME": "CARTOSAT-3", "OBJECT_ID": "2019-081A", "EPOCH": "2025-12-02T14:51:40.156128", "MEAN_MOTION": 15.1922655, "ECCENTRICITY": 0.0013778, "INCLINATION": 97.4603, "RA_OF_ASC_NODE": 36.3299, "ARG_OF_PERICENTER": 118.8523, "MEAN_ANOMALY": 241.4096, "EPHEMERIS_TYPE": 0, "CLASSIFICATION_TYPE": "U", "NORAD_CAT_ID": 44804, "ELEMENT_SET_NO": 999, "REV_AT_EPOCH": 33362, "BSTAR": 0.00014051, "MEAN_MOTION_DOT": 2.897e-05, "MEAN_MOTION_DDOT": 0}, "tle": {"line1": "1 44804U 19081A   25336.61921477  .00002897  00000+0  14051-3 0  9994", "line2": "2 44804  97.4603  36.3299 0013778 118.8523 241.4096 15.19226550333626"}}, "geometry": {"type": "Point", "coordinates": [-33.724073455095606, 82.07763212453527]}}, {"type": "Feature", "properties": {"norad_id": 44819, "name": "GAOFEN-12 01", "group": "resource", "lat": 61.433146528828225, "lon": 178.0443671888079, "alt_km": 622.249754964675, "timestamp": "2025-12-02T21:34:00.930909+00:00", "meta": {"OBJECT_NAME": "GAOFEN-12 01", "OBJECT_ID": "2019-082A", "EPOCH": "2025-12-02T12:55:42.328704", "MEAN_MOTION": 14.80637862, "ECCENTRICITY": 0.0001298, "INCLINATION": 97.8128, "RA_OF_ASC_NODE": 343.0874, "ARG_OF_PERICENTER": 303.3745, "MEAN_ANOMALY": 56.7344, "EPHEMERIS_TYPE": 0, "CLASSIFICATION_TYPE": "U", "NORAD_CAT_ID": 44819, "ELEMENT_SET_NO": 999, "REV_AT_EPOCH": 32499, "BSTAR": 0.00010273, "MEAN_MOTION_DOT": 7.38e-06, "MEAN_MOTION_DDOT": 0}, "tle": {"line1": "1 44819U 19082A   25336.53868436  .00000738  00000+0  10273-3 0  9991", "line2": "2 44819  97.8128 343.0874 0001298 303.3745  56.7344 14.80637862324998"}}, "geometry": {"type": "Point", "coordinates": [178.0443671888079, 61.433146528828225]}}, {"type": "Feature", "properties": {"norad_id": 44873, "name": "CSG-1", "group": "resource", "lat": 4.670850529459247, "lon": -20.980938064414453, "alt_km": 624.9133389611097, "timestamp": "2025-12-02T21:34:00.930919+00:00", "meta": {"OBJECT_NAME": "CSG-1", "OBJECT_ID": "2019-092A", "EPOCH": "2025-12-02T12:40:41.136960", "MEAN_MOTION": 14.82172958, "ECCENTRICITY": 0.0001377, "INCLINATION": 97.8806, "RA_OF_ASC_NODE": 158.006, "ARG_OF_PERICENTER": 83.5661, "MEAN_ANOMALY": 276.5708, "EPHEMERIS_TYPE": 0, "CLASSIFICATION_TYPE": "U", "NORAD_CAT_ID": 44873, "ELEMENT_SET_NO": 999, "REV_AT_EPOCH": 32234, "BSTAR": 0.00011983, "MEAN_MOTION_DOT": 9.02e-06, "MEAN_MOTION_DDOT": 0}, "tle": {"line1": "1 44873U 19092A   25336.52825390  .00000902  00000+0  11983-3 0  9995", "line2": "2 44873  97.8806 158.0060 0001377  83.5661 276.5708 14.82172958322349"}}, "geometry": {"type": "Point", "coordinates": [-20.980938064414453, 4.670850529459247]}}, {"type": "Feature", "properties": {"norad_id": 46277, "name": "NEMO-HD", "group": "resource", "lat": 79.21653334280178, "lon": -5.630683515357907, "alt_km": 437.17147424401264, "timestamp": "2025-12-02T21:34:00.930929+00:00", "meta": {"OBJECT_NAME": "NEMO-HD", "OBJECT_ID": "2020-061F", "EPOCH": "2025-12-02T11:51:20.527776", "MEAN_MOTION": 15.40000119, "ECCENTRICITY": 0.0002369, "INCLINATION": 97.2235, "RA_OF_ASC_NODE": 35.7245, "ARG_OF_PERICENTER": 69.4773, "MEAN_ANOMALY": 290.6727, "EPHEMERIS_TYPE": 0, "CLASSIFICATION_TYPE": "U", "NORAD_CAT_ID": 46277, "ELEMENT_SET_NO": 999, "REV_AT_EPOCH": 29166, "BSTAR": 0.00033242, "MEAN_MOTION_DOT": 0.00013189, "MEAN_MOTION_DDOT": 0}, "tle": {"line1": "1 46277U 20061F   25336.49398759  .00013189  00000+0  33242-3 0  9996", "line2": "2 46277  97.2235  35.7245 0002369  69.4773 290.6727 15.40000119291666"}}, "geometry": {"type": "Point", "coordinates": [-5.630683515357907, 79.21653334280178]}}, {"type": "Feature", "properties": {"norad_id": 46984, "name": "SENTINEL-6A", "group": "resource", "lat": 65.01521140179675, "lon": -104.65008592880933, "alt_km": 1336.4548487702095, "timestamp": "2025-12-02T21:34:00.930940+00:00", "meta": {"OBJECT_NAME": "SENTINEL-6A", "OBJECT_ID": "2020-086A", "EPOCH": "2025-12-02T00:31:27.283584", "MEAN_MOTION": 12.8092996, "ECCENTRICITY": 0.00077311, "INCLINATION": 66.0388, "RA_OF_ASC_NODE": 184.5694, "ARG_OF_PERICENTER": 269.1438, "MEAN_ANOMALY": 90.8692, "EPHEMERIS_TYPE": 0, "CLASSIFICATION_TYPE": "U", "NORAD_CAT_ID": 46984, "ELEMENT_SET_NO": 999, "REV_AT_EPOCH": 23507, "BSTAR": 0.00011630553, "MEAN_MOTION_DOT": -3.4e-07, "MEAN_MOTION_DDOT": 0}, "tle": {"line1": "1 46984U 20086A   25336.02184356 -.00000034  00000+0  11631-3 0  9997", "line2": "2 46984  66.0388 184.5694 0007731 269.1438  90.8692 12.80929960235079"}}, "geometry": {"type": "Point", "coordinates": [-104.65008592880933, 65.01521140179675]}}, {"type": "Feature", "properties": {"norad_id": 48079, "name": "GAOFEN-12 02", "group": "resource", "lat": 51.18308574302549, "lon": 161.00083376349167, "alt_km": 620.2957679354622, "timestamp": "2025-12-02T21:34:00.930950+00:00", "meta": {"OBJECT_NAME": "GAOFEN-12 02", "OBJECT_ID": "2021-026A", "EPOCH": "2025-12-02T12:52:52.728096", "MEAN_MOTION": 14.80655034, "ECCENTRICITY": 0.0003234, "INCLINATION": 97.9848, "RA_OF_ASC_NODE": 330.5927, "ARG_OF_PERICENTER": 121.4623, "MEAN_ANOMALY": 238.6906, "EPHEMERIS_TYPE": 0, "CLASSIFICATION_TYPE": "U", "NORAD_CAT_ID": 48079, "ELEMENT_SET_NO": 999, "REV_AT_EPOCH": 25266, "BSTAR": 0.00010215, "MEAN_MOTION_DOT": 7.32e-06, "MEAN_MOTION_DDOT": 0}, "tle": {"line1": "1 48079U 21026A   25336.53672139  .00000732  00000+0  10215-3 0  9997", "line2": "2 48079  97.9848 330.5927 0003234 121.4623 238.6906 14.80655034252666"}}, "geometry": {"type": "Point", "coordinates": [161.00083376349167, 51.18308574302549]}}, {"type": "Feature", "properties": {"norad_id": 48268, "name": "PLEIADES NEO 3", "group": "resource", "lat": 20.18902254255064, "lon": -127.59458074097067, "alt_km": 623.7189345980887, "timestamp": "2025-12-02T21:34:00.930962+00:00", "meta": {"OBJECT_NAME": "PLEIADES NEO 3", "OBJECT_ID": "2021-034A", "EPOCH": "2025-12-02T12:44:44.239776", "MEAN_MOTION": 14.81676929, "ECCENTRICITY": 0.0001202, "INCLINATION": 97.8946, "RA_OF_ASC_NODE": 49.1185, "ARG_OF_PERICENTER": 97.9097, "MEAN_ANOMALY": 262.2252, "EPHEMERIS_TYPE": 0, "CLASSIFICATION_TYPE": "U", "NORAD_CAT_ID": 48268, "ELEMENT_SET_NO": 999, "REV_AT_EPOCH": 24853, "BSTAR": -1.1597e-06, "MEAN_MOTION_DOT": -6.1e-07, "MEAN_MOTION_DDOT": 0}, "tle": {"line1": "1 48268U 21034A   25336.53106759 -.00000061  00000+0 -11597-5 0  9999", "line2": "2 48268  97.8946  49.1185 0001202  97.9097 262.2252 14.81676929248533"}}, "geometry": {"type": "Point", "coordinates": [-127.59458074097067, 20.18902254255064]}}, {"type": "Feature", "properties": {"norad_id": 49070, "name": "PLEIADES NEO 4", "group": "resource", "lat": -20.398870643849087, "lon": 52.434375534937764, "alt_km": 629.6990345029744, "timestamp": "2025-12-02T21:34:00.930973+00:00", "meta": {"OBJECT_NAME": "PLEIADES NEO 4", "OBJECT_ID": "2021-073E", "EPOCH": "2025-12-02T11:56:06.103968", "MEAN_MOTION": 14.81672662, "ECCENTRICITY": 0.0001335, "INCLINATION": 97.8949, "RA_OF_ASC_NODE": 49.0809, "ARG_OF_PERICENTER": 96.0902, "MEAN_ANOMALY": 264.0463, "EPHEMERIS_TYPE": 0, "CLASSIFICATION_TYPE": "U", "NORAD_CAT_ID": 49070, "ELEMENT_SET_NO": 999, "REV_AT_EPOCH": 23224, "BSTAR": -1.6634e-07, "MEAN_MOTION_DOT": -5.3e-07, "MEAN_MOTION_DDOT": 0}, "tle": {"line1": "1 49070U 21073E   25336.49729287 -.00000053  00000+0 -16634-6 0  9995", "line2": "2 49070  97.8949  49.0809 0001335  96.0902 264.0463 14.81672662232247"}}, "geometry": {"type": "Point", "coordinates": [52.434375534937764, -20.398870643849087]}}, {"type": "Feature", "properties": {"norad_id": 49260, "name": "LANDSAT 9", "group": "resource", "lat": 34.75459820746689, "lon": -129.09889888984193, "alt_km": 699.7706674345909, "timestamp": "2025-12-02T21:34:00.930983+00:00", "meta": {"OBJECT_NAME": "LANDSAT 9", "OBJECT_ID": "2021-088A", "EPOCH": "2025-12-02T04:25:27.421824", "MEAN_MOTION": 14.57112183, "ECCENTRICITY": 0.00010875, "INCLINATION": 98.2105, "RA_OF_ASC_NODE": 44.4476, "ARG_OF_PERICENTER": 92.5129, "MEAN_ANOMALY": 267.6194, "EPHEMERIS_TYPE": 0, "CLASSIFICATION_TYPE": "U", "NORAD_CAT_ID": 49260, "ELEMENT_SET_NO": 999, "REV_AT_EPOCH": 22231, "BSTAR": 0.0001315333, "MEAN_MOTION_DOT": 5.47e-06, "MEAN_MOTION_DDOT": 0}, "tle": {"line1": "1 49260U 21088A   25336.18434516  .00000547  00000+0  13153-3 0  9992", "line2": "2 49260  98.2105  44.4476 0001087  92.5129 267.6194 14.57112183222319"}}, "geometry": {"type": "Point", "coordinates": [-129.09889888984193, 34.75459820746689]}}]}